{
  "type": "FeatureCollection",
  "name": "kazakhstan_major_lakes",
  "features": [
    {
      "type": "Feature",
      "properties": {
        "id": "caspian",
        "name": "Caspian Sea",
        "basin": "Zhaiyk-Kaspian",
        "area_km2": 371000,
        "type": "sea"
      },
      "geometry": {
        "type": "Polygon",
        "coordinates": [[
          [49.80, 46.00], [51.50, 45.80], [53.20, 46.20], [54.00, 46.80],
          [54.20, 47.60], [53.50, 48.20], [51.80, 48.00], [50.20, 47.40], [49.80, 46.00]
        ]]
      }
    },
    {
      "type": "Feature",
      "properties": {
        "id": "balkhash",
        "name": "Lake Balkhash",
        "basin": "Balkash-Alakol",
        "area_km2": 16400,
        "type": "lake"
      },
      "geometry": {
        "type": "Polygon",
        "coordinates": [[
          [73.50, 45.80], [75.50, 45.50], [77.50, 45.80], [79.20, 46.20],
          [78.80, 47.20], [76.50, 47.60], [74.50, 47.30], [73.50, 46.50], [73.50, 45.80]
        ]]
      }
    },
    {
      "type": "Feature",
      "properties": {
        "id": "alakol",
        "name": "Lake Alakol",
        "basin": "Balkash-Alakol",
        "area_km2": 2650,
        "type": "lake"
      },
      "geometry": {
        "type": "Polygon",
        "coordinates": [[
          [80.20, 45.50], [82.00, 45.50], [82.60, 46.40], [81.80, 47.20],
          [80.50, 47.00], [80.20, 46.00], [80.20, 45.50]
        ]]
      }
    },
    {
      "type": "Feature",
      "properties": {
        "id": "zaysan",
        "name": "Lake Zaysan",
        "basin": "Ertis",
        "area_km2": 1800,
        "type": "lake"
      },
      "geometry": {
        "type": "Polygon",
        "coordinates": [[
          [83.50, 46.50], [85.50, 46.50], [85.80, 47.80], [84.50, 48.40],
          [83.20, 48.00], [83.50, 46.50]
        ]]
      }
    },
    {
      "type": "Feature",
      "properties": {
        "id": "north_aral",
        "name": "North Aral Sea",
        "basin": "Aralo-Syrdarya",
        "area_km2": 3300,
        "type": "lake"
      },
      "geometry": {
        "type": "Polygon",
        "coordinates": [[
          [59.00, 46.00], [61.50, 46.00], [62.20, 46.80], [61.00, 47.40],
          [59.50, 47.20], [59.00, 46.00]
        ]]
      }
    }
  ]
}
